0 DELTA 1 DEB
1 18645U 73086GX  13284.19100608  .00000083  00000-0  98449-3 0  8921
2 18645 102.2146 005.3044 0116992 281.8874 102.7545 12.36507157292941
0 DELTA 1 DEB
1 18645U 73086GX  13285.67930307  .00000066  00000-0  85776-3 0  8933
2 18645 102.2163 006.7904 0116953 279.1628 247.7992 12.36506973293126
0 DELTA 1 DEB
1 18645U 73086GX  13286.72861105  .00000111  00000-0  12003-2 0  8943
2 18645 102.2137 007.8311 0117196 277.2385 238.7287 12.36508015293250
0 DELTA 1 DEB
1 18645U 73086GX  13289.20805866  .00000145  00000-0  14606-2 0  8950
2 18645 102.2136 010.3017 0117379 272.7092 115.8093 12.36508846293565
0 DELTA 1 DEB
1 18645U 73086GX  13292.20133128  .00000161  00000-0  15807-2 0  8962
2 18645 102.2128 013.2841 0117520 267.2480 120.1533 12.36510642293937
0 DELTA 1 DEB
1 18645U 73086GX  13294.73746561  .00000148  00000-0  14820-2 0  8973
2 18645 102.2121 015.8105 0117836 262.6363 249.5741 12.36511791294248
0 DELTA 1 DEB
1 18645U 73086GX  13296.16590443  .00000138  00000-0  14057-2 0  8980
2 18645 102.2125 017.2340 0117939 260.0435 128.1684 12.36512866294427
